NAVSTAR 77 (USA 289)    
1 43873U 18109A   26053.57880667  .00000006  00000+0  00000+0 0  9991
2 43873  55.6079  96.7078 0037914 198.0098 334.5910  2.00556099 52777
TJS-3                   
1 43874U 18110A   26053.19608525 -.00000187  00000+0  00000+0 0  9994
2 43874   2.2469  81.9282 0000679  77.4610 140.7476  1.00640615 26266
KANOPUS-V 5             
1 43876U 18111A   26053.72400525  .00000162  00000+0  97162-5 0  9999
2 43876  97.3660 321.5347 0001626  80.9118 279.2303 15.23298041397367
KANOPUS-V 6             
1 43877U 18111B   26053.95989549  .00021609  00000+0  58756-3 0  9996
2 43877  97.3741 330.1965 0002383  69.3690 290.7810 15.37561457397941
ISAT                    
1 43879U 18111D   26053.87607937  .00059145  00000+0  10823-2 0  9995
2 43879  97.5898 341.8443 0006494  30.9991 329.1641 15.49133798393382
UWE-4                   
1 43880U 18111E   26053.72451557  .00034861  00000+0  90437-3 0  9994
2 43880  97.5850 337.4840 0010388  31.2095 328.9765 15.38866663393139
D-STAR ONE (SPARROW)    
1 43881U 18111F   26053.86201684  .00069199  00000+0  11231-2 0  9990
2 43881  97.6111 346.0867 0007175  62.9732 297.2252 15.52479363393520
GRUS-1A                 
1 43890U 18111Q   26053.95012105  .00000928  00000+0  81466-4 0  9992
2 43890  97.4699 285.9609 0008005 172.4534 187.6812 14.98843653390598
YUNHAI-2 01A            
1 43909U 18112A   26053.90513731  .00000351  00000+0  20152-3 0  9994
2 43909  50.0094 169.3059 0000569 165.2352 194.8580 14.28967279374747
YUNHAI-2 01B            
1 43910U 18112B   26053.92507997  .00000063  00000+0  88193-4 0  9995
2 43910  50.0096 232.8497 0005009 179.3587 180.7336 14.28958671373909
YUNHAI-2 01C            
1 43911U 18112C   26053.81096304  .00000238  00000+0  15700-3 0  9996
2 43911  50.0113 112.9008 0000609 131.8159 228.2808 14.28943996375431
YUNHAI-2 01D            
1 43912U 18112D   26053.92735708  .00000065  00000+0  88924-4 0  9994
2 43912  50.0106  52.4393 0015798 303.6326  56.3082 14.28976196371246
YUNHAI-2 01E            
1 43913U 18112E   26053.81291547  .00000067  00000+0  89868-4 0  9991
2 43913  50.0070 292.2556 0005136 326.8007  33.2585 14.28957240372804
HONGYAN 1 (CHONGQING)   
1 43914U 18112F   26053.93479897 -.00000039  00000+0  15469-3 0  9996
2 43914  50.0091 297.2490 0006495 268.9234  91.0900 13.43814988351174
YUNHAI-2 01F            
1 43915U 18112G   26053.90388059  .00000277  00000+0  17214-3 0  9996
2 43915  50.0132 352.7466 0007210 287.5753  72.4374 14.28975529371960
ZHONGXING-2D            
1 43920U 19001A   26053.91182954 -.00000334  00000+0  00000+0 0  9993
2 43920   0.0152 124.3731 0001167 134.7588 351.9320  1.00270392 52936
IRIDIUM 180             
1 43922U 19002A   26053.92489482 -.00000059  00000+0 -27996-4 0  9996
2 43922  86.3941  41.3391 0002239  88.2145 271.9307 14.34216156372619
IRIDIUM 176             
1 43923U 19002B   26053.90527446  .00000633  00000+0  96429-4 0  9991
2 43923  86.6067  41.3066 0002353  86.6055 273.5431 14.72250326382436
IRIDIUM 168             
1 43924U 19002C   26053.91855273  .00000024  00000+0  14054-5 0  9994
2 43924  86.3949  41.4158 0002232  87.9063 272.2388 14.34217564372593
IRIDIUM 173             
1 43925U 19002D   26053.90586580  .00000247  00000+0  81177-4 0  9992
2 43925  86.3945  41.3145 0002230  84.8313 275.3137 14.34217692372573
IRIDIUM 169             
1 43926U 19002E   26053.76344815  .00000144  00000+0  40489-4 0  9997
2 43926  86.4165  73.0363 0001942  70.6778 289.4631 14.38606105373773
IRIDIUM 172             
1 43927U 19002F   26053.89952340  .00000146  00000+0  44920-4 0  9996
2 43927  86.3945  41.3250 0002350  89.3718 270.7747 14.34216166372586
IRIDIUM 175             
1 43928U 19002G   26053.22100271  .00001046  00000+0  16192-3 0  9991
2 43928  86.1549 339.9948 0001586 110.0135 250.1252 14.72240777382323
IRIDIUM 171             
1 43929U 19002H   26053.95026360 -.00000067  00000+0 -30852-4 0  9992
2 43929  86.3948  41.5979 0001869  89.4415 270.6995 14.34216297372589
IRIDIUM 170             
1 43930U 19002J   26053.91143782  .00000519  00000+0  78403-4 0  9992
2 43930  86.6065  41.3073 0002454  89.5659 270.5840 14.72263963382447
IRIDIUM 167             
1 43931U 19002K   26053.94392342  .00000186  00000+0  59451-4 0  9996
2 43931  86.3944  41.3279 0001826  85.1472 274.9932 14.34218943372586
JILIN-1 09              
1 43943U 19005B   26053.89377965  .00006556  00000+0  31375-3 0  9991
2 43943  97.4713 149.9601 0003613 119.2833 240.8763 15.19298815391783
JILIN-1 10              
1 43946U 19005E   26053.95732090  .00008567  00000+0  35429-3 0  9993
2 43946  97.4739 152.9289 0007365 327.6646  32.4139 15.24194455391902
HELLAS-SAT 4 & SGS-1    
1 44034U 19007A   26053.89380278  .00000156  00000+0  00000+0 0  9993
2 44034   0.0622 127.8335 0002910  40.6774 345.0606  1.00272241 26221
GSAT-31                 
1 44035U 19007B   26053.94211500  .00000128  00000+0  00000+0 0  9990
2 44035   0.0566 275.5141 0005230  19.0170 245.3214  1.00271793 25826
