OBJECT_NAME,OBJECT_ID,EPOCH,MEAN_MOTION,ECCENTRICITY,INCLINATION,RA_OF_ASC_NODE,ARG_OF_PERICENTER,MEAN_ANOMALY,EPHEMERIS_TYPE,CLASSIFICATION_TYPE,NORAD_CAT_ID,ELEMENT_SET_NO,REV_AT_EPOCH,BSTAR,MEAN_MOTION_DOT,MEAN_MOTION_DDOT
NAVSTAR 77 (USA 289),2018-109A,2026-02-22T13:53:28.896288,2.00556099,.0037914,55.6079,96.7078,198.0098,334.5910,0,U,43873,999,5277,0,.6E-7,0
TJS-3,2018-110A,2026-02-22T04:42:21.765600,1.00640615,.0000679,2.2469,81.9282,77.4610,140.7476,0,U,43874,999,2626,0,-.187E-5,0
KANOPUS-V 5,2018-111A,2026-02-22T17:22:34.053600,15.23298041,.00016267,97.3660,321.5347,80.9118,279.2303,0,U,43876,999,39736,.9716214E-5,.162E-5,0
KANOPUS-V 6,2018-111B,2026-02-22T23:02:14.970336,15.37561457,.00023833,97.3741,330.1965,69.3690,290.7810,0,U,43877,999,39794,.5875618E-3,.21609E-3,0
ISAT,2018-111D,2026-02-22T21:01:33.257568,15.49133798,.00064949,97.5898,341.8443,30.9991,329.1641,0,U,43879,999,39338,.10823052E-2,.59145E-3,0
UWE-4,2018-111E,2026-02-22T17:23:18.145248,15.38866663,.0010388,97.5850,337.4840,31.2095,328.9765,0,U,43880,999,39313,.90437362E-3,.34861E-3,0
D-STAR ONE (SPARROW),2018-111F,2026-02-22T20:41:18.254976,15.52479363,.00071756,97.6111,346.0867,62.9732,297.2252,0,U,43881,999,39352,.11231317E-2,.69199E-3,0
GRUS-1A,2018-111Q,2026-02-22T22:48:10.458720,14.98843653,.00080059,97.4699,285.9609,172.4534,187.6812,0,U,43890,999,39059,.81465729E-4,.928E-5,0
YUNHAI-2 01A,2018-112A,2026-02-22T21:43:23.863584,14.28967279,.00005691,50.0094,169.3059,165.2352,194.8580,0,U,43909,999,37474,.2015201E-3,.351E-5,0
YUNHAI-2 01B,2018-112B,2026-02-22T22:12:06.909408,14.28958671,.00050093,50.0096,232.8497,179.3587,180.7336,0,U,43910,999,37390,.88193399E-4,.63E-6,0
YUNHAI-2 01C,2018-112C,2026-02-22T19:27:47.206656,14.28943996,.00006092,50.0113,112.9008,131.8159,228.2808,0,U,43911,999,37543,.15700296E-3,.238E-5,0
YUNHAI-2 01D,2018-112D,2026-02-22T22:15:23.651712,14.28976196,.00157987,50.0106,52.4393,303.6326,56.3082,0,U,43912,999,37124,.88923507E-4,.65E-6,0
YUNHAI-2 01E,2018-112E,2026-02-22T19:30:35.896608,14.28957240,.00051367,50.0070,292.2556,326.8007,33.2585,0,U,43913,999,37280,.89867907E-4,.67E-6,0
HONGYAN 1 (CHONGQING),2018-112F,2026-02-22T22:26:06.631008,13.43814988,.00064959,50.0091,297.2490,268.9234,91.0900,0,U,43914,999,35117,.15469322E-3,-.39E-6,0
YUNHAI-2 01F,2018-112G,2026-02-22T21:41:35.282976,14.28975529,.00072106,50.0132,352.7466,287.5753,72.4374,0,U,43915,999,37196,.17214465E-3,.277E-5,0
ZHONGXING-2D,2019-001A,2026-02-22T21:53:02.072256,1.00270392,.0001167,0.0152,124.3731,134.7588,351.9320,0,U,43920,999,5293,0,-.334E-5,0
IRIDIUM 180,2019-002A,2026-02-22T22:11:50.912448,14.34216156,.0002239,86.3941,41.3391,88.2145,271.9307,0,U,43922,999,37261,-.27996004E-4,-.59E-6,0
IRIDIUM 176,2019-002B,2026-02-22T21:43:35.713344,14.72250326,.00023537,86.6067,41.3066,86.6055,273.5431,0,U,43923,999,38243,.96429087E-4,.633E-5,0
IRIDIUM 168,2019-002C,2026-02-22T22:02:42.955872,14.34217564,.00022328,86.3949,41.4158,87.9063,272.2388,0,U,43924,999,37259,.1405363E-5,.24E-6,0
IRIDIUM 173,2019-002D,2026-02-22T21:44:26.805120,14.34217692,.00022305,86.3945,41.3145,84.8313,275.3137,0,U,43925,999,37257,.81176704E-4,.247E-5,0
IRIDIUM 169,2019-002E,2026-02-22T18:19:21.920160,14.38606105,.0001942,86.4165,73.0363,70.6778,289.4631,0,U,43926,999,37377,.4048939E-4,.144E-5,0
IRIDIUM 172,2019-002F,2026-02-22T21:35:18.821760,14.34216166,.00023501,86.3945,41.3250,89.3718,270.7747,0,U,43927,999,37258,.44919534E-4,.146E-5,0
IRIDIUM 175,2019-002G,2026-02-22T05:18:14.634144,14.72240777,.00015861,86.1549,339.9948,110.0135,250.1252,0,U,43928,999,38232,.16192467E-3,.1046E-4,0
IRIDIUM 171,2019-002H,2026-02-22T22:48:22.775040,14.34216297,.00018694,86.3948,41.5979,89.4415,270.6995,0,U,43929,999,37258,-.30852475E-4,-.67E-6,0
IRIDIUM 170,2019-002J,2026-02-22T21:52:28.227648,14.72263963,.00024545,86.6065,41.3073,89.5659,270.5840,0,U,43930,999,38244,.78403495E-4,.519E-5,0
IRIDIUM 167,2019-002K,2026-02-22T22:39:14.983488,14.34218943,.00018266,86.3944,41.3279,85.1472,274.9932,0,U,43931,999,37258,.59451216E-4,.186E-5,0
JILIN-1 09,2019-005B,2026-02-22T21:27:02.561760,15.19298815,.00036134,97.4713,149.9601,119.2833,240.8763,0,U,43943,999,39178,.3137503E-3,.6556E-4,0
JILIN-1 10,2019-005E,2026-02-22T22:58:32.525760,15.24194455,.00073659,97.4739,152.9289,327.6646,32.4139,0,U,43946,999,39190,.35428611E-3,.8567E-4,0
HELLAS-SAT 4 & SGS-1,2019-007A,2026-02-22T21:27:04.560192,1.00272241,.000291,0.0622,127.8335,40.6774,345.0606,0,U,44034,999,2622,0,.156E-5,0
GSAT-31,2019-007B,2026-02-22T22:36:38.736000,1.00271793,.00052308,0.0566,275.5141,19.0170,245.3214,0,U,44035,999,2582,0,.128E-5,0
